STARLINK-3897           
1 52537U 22051E   23294.55471450 -.00001210  00000+0 -57928-4 0  9993
2 52537  53.2172  75.1139 0001836  87.5673 272.5529 15.08847576 80083
STARLINK-3933           
1 52538U 22051F   23294.49954763 -.00001005  00000+0 -45007-4 0  9997
2 52538  53.2157  75.5504 0002239  84.3402 275.7846 15.08839687 80070
STARLINK-3757           
1 52539U 22051G   23294.50320048 -.00017064  00000+0 -10554-2 0  9992
2 52539  53.2144  75.5391 0001487 112.1868 247.9282 15.08880209 80072
STARLINK-3940           
1 52540U 22051H   23294.54465311  .00003785  00000+0  25584-3 0  9994
2 52540  53.2153  75.2465 0002303  93.4074 266.7182 15.08829770 80086
STARLINK-3845           
1 52541U 22051J   23294.52300047  .00000330  00000+0  38852-4 0  9993
2 52541  53.2159  80.4500 0001671  89.8715 270.2468 15.08844278 80008
STARLINK-3937           
1 52542U 22051K   23294.55107866  .00000123  00000+0  25873-4 0  9990
2 52542  53.2127  75.3220 0002668 103.0461 257.0829 15.08833622 80083
STARLINK-3926           
1 52543U 22051L   23294.49585593 -.00006226  00000+0 -37326-3 0  9998
2 52543  53.2153  75.5664 0002076  89.1144 271.0086 15.08849680 80073
STARLINK-3944           
1 52544U 22051M   23294.51564160  .00000169  00000+0  28711-4 0  9996
2 52544  53.2161  80.4907 0001309 105.5035 254.6102 15.08840223 80001
STARLINK-3939           
1 52545U 22051N   23294.49218297  .00000553  00000+0  52811-4 0  9996
2 52545  53.2192  75.5868 0001221  79.9596 280.1534 15.08837455 80079
STARLINK-3948           
1 52546U 22051P   23294.50685412  .00000026  00000+0  19757-4 0  9993
2 52546  53.2139  75.1257 0002311  82.2197 277.9057 15.08848577 80086
STARLINK-3869           
1 52547U 22051Q   23294.51932637  .00008736  00000+0  56622-3 0  9996
2 52547  53.2142  80.4661 0002186  84.8833 275.2408 15.08844243 80003
STARLINK-3931           
1 52548U 22051R   23294.52897629  .00000931  00000+0  76564-4 0  9996
2 52548  53.2185  75.4229 0001142  89.4013 270.7110 15.08846168 80083
STARLINK-3935           
1 52549U 22051S   23294.54738304  .00000503  00000+0  49722-4 0  9994
2 52549  53.2152  75.3400 0002008  88.2658 271.8564 15.08839307 80084
STARLINK-3965           
1 52550U 22051T   23294.53634334  .00002416  00000+0  16982-3 0  9999
2 52550  53.2154  75.3891 0001985  90.6319 269.4901 15.08841234 80086
STARLINK-3969           
1 52551U 22051U   23294.54370174 -.00002714  00000+0 -15240-3 0  9999
2 52551  53.2148  75.3560 0002357  87.1705 272.9557 15.08850029 80085
STARLINK-3966           
1 52552U 22051V   23294.52626070  .00001224  00000+0  94987-4 0  9996
2 52552  53.2152  75.4472 0001902  85.1516 274.9693 15.08840349 80084
STARLINK-3858           
1 52553U 22051W   23294.51158713  .00001453  00000+0  10936-3 0  9995
2 52553  53.2145  75.8949 0002243  86.9094 273.2155 15.08841091 80078
STARLINK-3770           
1 52554U 22051X   23294.51196222 -.00000394  00000+0 -66577-5 0  9992
2 52554  53.2171  80.4966 0001584  79.6243 280.4928 15.08841431 80000
STARLINK-3949           
1 52555U 22051Y   23294.54005728  .00020885  00000+0  13293-2 0  9995
2 52555  53.2160  75.4482 0001183 115.1162 244.9953 15.08761255 80083
STARLINK-3763           
1 52556U 22051Z   23293.80361782 -.00007441  00000+0 -39848-3 0  9999
2 52556  53.2243  69.3796 0000805  46.3890 313.7171 15.13162002 80100
STARLINK-3943           
1 52557U 22051AA  23294.52161438  .00001312  00000+0  10052-3 0  9991
2 52557  53.2148  75.4531 0002281  81.0652 279.0599 15.08849634 80084
STARLINK-3954           
1 52558U 22051AB  23294.52253953  .00000576  00000+0  54258-4 0  9994
2 52558  53.2168  65.4513 0001430 100.8789 259.2364 15.08843570 80210
STARLINK-3953           
1 52559U 22051AC  23294.46736401 -.00000259  00000+0  18438-5 0  9992
2 52559  53.2179  65.8793 0001406  98.4783 261.6368 15.08837580 80200
STARLINK-3956           
1 52560U 22051AD  23294.51890186  .00029870  00000+0  18933-2 0  9997
2 52560  53.2192  65.4670 0001619 144.2808 215.8292 15.08716335 80213
STARLINK-3955           
1 52561U 22051AE  23293.44108461 -.00000989  00000+0 -44080-4 0  9993
2 52561  53.2159  85.3042 0001590  90.7190 269.3984 15.08836835 79845
STARLINK-3957           
1 52562U 22051AF  23294.51154958  .00021513  00000+0  13697-2 0  9997
2 52562  53.2170  65.5024 0001575 117.3447 242.7706 15.08731691 80217
STARLINK-3942           
1 52563U 22051AG  23293.57724295 -.00000103  00000+0  11624-4 0  9993
2 52563  53.2171  84.6934 0001466 108.7174 251.3977 15.08837691 79931
STARLINK-3959           
1 52564U 22051AH  23294.56446552  .00021946  00000+0  13962-2 0  9993
2 52564  53.2152  80.2740 0000541 101.3968 258.7085 15.08747061 80014
STARLINK-3911           
1 52565U 22051AJ  23294.51520454  .00020001  00000+0  12742-2 0  9999
2 52565  53.2166  65.4834 0001769 123.3708 236.7453 15.08752354 80216
STARLINK-3938           
1 52566U 22051AK  23294.54140140 -.00000510  00000+0 -13911-4 0  9999
2 52566  53.2145  80.3697 0002014  84.0145 276.1077 15.08844435 80019
STARLINK-3929           
1 52567U 22051AL  23294.50780792  .00003102  00000+0  21282-3 0  9996
2 52567  53.2172  65.5182 0001607  79.4211 280.6963 15.08858544 80215
STARLINK-3930           
1 52568U 22051AM  23294.49678746 -.00000456  00000+0 -10516-4 0  9990
2 52568  53.2154  65.5713 0002215  84.3980 275.7265 15.08838071 80213
STARLINK-3927           
1 52569U 22051AN  23294.50417716  .00022014  00000+0  13989-2 0  9998
2 52569  53.2142  65.5359 0002122  95.2734 264.8500 15.08788186 80214
STARLINK-3924           
1 52570U 22051AP  23294.62557738  .00000127  00000+0  26041-4 0  9998
2 52570  53.2177  64.9913 0001404  88.3976 271.7177 15.08846484 80231
STARLINK-3901           
1 52574U 22051AQ  23294.50046071  .00000320  00000+0  38241-4 0  9992
2 52574  53.2168  65.5499 0002144  89.7871 270.3367 15.08840837 80212
STARLINK-3920           
1 52575U 22051AR  23294.48941988 -.00001150  00000+0 -54183-4 0  9998
2 52575  53.2164  65.6003 0001701  82.3581 277.7604 15.08836363 80210
STARLINK-3932           
1 52576U 22051AS  23294.48301537 -.00000409  00000+0 -75994-5 0  9999
2 52576  53.2200  65.6261 0001242  79.9065 280.2067 15.08842126 80213
STARLINK-3836           
1 52577U 22051AT  23294.53403942  .00000554  00000+0  52879-4 0  9994
2 52577  53.2157  80.3997 0001994  83.7445 276.3774 15.08847469 80018
STARLINK-3833           
1 52578U 22051AU  23294.53771852  .00001687  00000+0  12404-3 0  9990
2 52578  53.2164  80.3847 0001580  82.4617 277.6554 15.08841146 80015
STARLINK-3893           
1 52579U 22051AV  23294.52668249  .00001890  00000+0  13680-3 0  9998
2 52579  53.2157  80.4346 0002260  76.7959 283.3285 15.08843021 80013
STARLINK-3919           
1 52580U 22051AW  23294.53132399 -.00001762  00000+0 -92641-4 0  9998
2 52580  53.2145  80.4212 0002466  76.0105 284.1161 15.08831867 80015
STARLINK-3915           
1 52581U 22051AX  23294.47838576 -.00000107  00000+0  11420-4 0  9999
2 52581  53.2154  65.6468 0002652  82.3369 277.7925 15.08835418 80217
STARLINK-3886           
1 52582U 22051AY  23294.48574153 -.00000545  00000+0 -16134-4 0  9993
2 52582  53.2180  65.6155 0001820  82.9556 277.1643 15.08844193 80211
STARLINK-3895           
1 52583U 22051AZ  23294.47470203  .00000525  00000+0  51072-4 0  9990
2 52583  53.2156  65.6682 0001974  92.2518 267.8700 15.08840146 80216
STARLINK-3922           
1 52584U 22051BA  23294.48206472  .00000875  00000+0  73098-4 0  9997
2 52584  53.2162  65.6320 0001668  87.6742 272.4441 15.08839572 80282
STARLINK-3906           
1 52585U 22051BB  23294.52991379  .00012131  00000+0  77954-3 0  9992
2 52585  53.2164  65.3768 0001589  94.7922 265.3252 15.08812082 80221
STARLINK-3910           
1 52586U 22051BC  23294.47102489 -.00000551  00000+0 -16504-4 0  9993
2 52586  53.2154  65.6781 0001439 100.2001 259.9153 15.08839905 80215
STARLINK-3867           
1 52587U 22051BD  23294.51611829 -.00000107  00000+0  11380-4 0  9995
2 52587  53.2166  65.3303 0002022 100.0829 260.0391 15.08843770 80224
STARLINK-3917           
1 52588U 22051BE  23294.52621668 -.00006699  00000+0 -40283-3 0  9995
2 52588  53.2192  65.4382 0002699  87.4190 272.7111 15.08865802 80221
STARLINK-4019           
1 52598U 22052A   23294.56440886  .00000546  00000+0  52412-4 0  9993
2 52598  53.2179 230.2625 0001795 106.6626 253.4563 15.08841749 80224
STARLINK-4024           
1 52599U 22052B   23294.55199777  .00003031  00000+0  20842-3 0  9996
2 52599  53.2175 225.4226 0001567  99.0672 261.0498 15.08842235 80297
STARLINK-4026           
1 52600U 22052C   23294.52990453  .00000991  00000+0  80315-4 0  9990
2 52600  53.2164 225.4195 0001272  94.0140 266.0997 15.08847329 80299
STARLINK-4027           
1 52601U 22052D   23294.53727211  .00005422  00000+0  35847-3 0  9995
2 52601  53.2160 225.3872 0001752  94.4765 265.6427 15.08841153 80299
STARLINK-4012           
1 52602U 22052E   23294.20239189 -.00000095  00000+0  12101-4 0  9993
2 52602  53.2167 226.8880 0001576  80.9959 279.1211 15.08833592 80245
STARLINK-4016           
1 52603U 22052F   23294.51982914  .00011056  00000+0  71152-3 0  9997
2 52603  53.2153 225.4743 0001433  76.8491 283.2661 15.08845556 80294
STARLINK-4013           
1 52604U 22052G   23294.52622905  .00001209  00000+0  94057-4 0  9999
2 52604  53.2153 225.4357 0001022  85.3484 274.7625 15.08839573 79494
STARLINK-4000           
1 52605U 22052H   23294.56073070  .00004808  00000+0  31993-3 0  9994
2 52605  53.2184 230.2782 0001867  99.2556 260.8647 15.08843208 79429
STARLINK-3928           
1 52606U 22052J   23294.52255176  .00006555  00000+0  42960-3 0  9997
2 52606  53.2163 225.4535 0001501  90.8213 269.2952 15.08836212 79497
STARLINK-3947           
1 52607U 22052K   23294.55432700  .00001613  00000+0  11942-3 0  9997
2 52607  53.2174 230.3176 0001460  96.2843 263.8315 15.08845843 79414
